[{"OBJECT_NAME":"STARLINK-5762","OBJECT_ID":"2023-020X","EPOCH":"2026-03-09T22:00:01.999584","MEAN_MOTION":15.1288855,"ECCENTRICITY":0.00011718,"INCLINATION":42.9999,"RA_OF_ASC_NODE":2.7146,"ARG_OF_PERICENTER":226.8204,"MEAN_ANOMALY":55.9647,"EPHEMERIS_TYPE":0,"CLASSIFICATION_TYPE":"U","NORAD_CAT_ID":55590,"ELEMENT_SET_NO":999,"REV_AT_EPOCH":577,"BSTAR":0.0010551385,"MEAN_MOTION_DOT":0.00018724,"MEAN_MOTION_DDOT":0},{"OBJECT_NAME":"SHIJIAN-30B (SJ-30B)","OBJECT_ID":"2025-266B","EPOCH":"2026-03-09T22:16:30.653184","MEAN_MOTION":15.15274975,"ECCENTRICITY":0.0009234,"INCLINATION":51.7956,"RA_OF_ASC_NODE":284.3547,"ARG_OF_PERICENTER":294.0763,"MEAN_ANOMALY":65.9247,"EPHEMERIS_TYPE":0,"CLASSIFICATION_TYPE":"U","NORAD_CAT_ID":66546,"ELEMENT_SET_NO":999,"REV_AT_EPOCH":1680,"BSTAR":0.00057385906,"MEAN_MOTION_DOT":0.00010651,"MEAN_MOTION_DDOT":0}]
